<?xml version="1.0" encoding="UTF-8"?>
<kml xmlns="http://www.opengis.net/kml/2.2" xmlns:gx="http://www.google.com/kml/ext/2.2" xmlns:kml="http://www.opengis.net/kml/2.2" xmlns:atom="http://www.w3.org/2005/Atom">
<Document id="document">
	<name>Carte sans titre</name>
	<Schema name="__managed_schema" id="__managed_schema">
		<SimpleField type="int" name="180C8018E33E41B6B12A">
			<displayName>Précision (m)</displayName>
		</SimpleField>
	</Schema>
	<gx:CascadingStyle kml:id="__managed_style_20EC1CF28C3E41B6B12C">
		<Style>
			<IconStyle>
				<scale>1.2</scale>
				<Icon>
					<href>https://earth.google.com/earth/document/icon?color=1976d2&amp;id=2000&amp;scale=4</href>
				</Icon>
				<hotSpot x="64" y="128" xunits="pixels" yunits="insetPixels"/>
			</IconStyle>
			<LabelStyle>
			</LabelStyle>
			<LineStyle>
				<color>ff2dc0fb</color>
				<width>2</width>
			</LineStyle>
			<PolyStyle>
				<color>40ffffff</color>
			</PolyStyle>
			<BalloonStyle>
				<displayMode>hide</displayMode>
			</BalloonStyle>
		</Style>
	</gx:CascadingStyle>
	<gx:CascadingStyle kml:id="__managed_style_1EDCD14A8E3E41B6B12C">
		<Style>
			<IconStyle>
				<Icon>
					<href>https://earth.google.com/earth/document/icon?color=1976d2&amp;id=2000&amp;scale=4</href>
				</Icon>
				<hotSpot x="64" y="128" xunits="pixels" yunits="insetPixels"/>
			</IconStyle>
			<LabelStyle>
			</LabelStyle>
			<LineStyle>
				<color>ff2dc0fb</color>
				<width>1.33333</width>
			</LineStyle>
			<PolyStyle>
				<color>40ffffff</color>
			</PolyStyle>
			<BalloonStyle>
				<displayMode>hide</displayMode>
			</BalloonStyle>
		</Style>
	</gx:CascadingStyle>
	<StyleMap id="__managed_style_01025E3BC63E41B6B12C">
		<Pair>
			<key>normal</key>
			<styleUrl>#__managed_style_1EDCD14A8E3E41B6B12C</styleUrl>
		</Pair>
		<Pair>
			<key>highlight</key>
			<styleUrl>#__managed_style_20EC1CF28C3E41B6B12C</styleUrl>
		</Pair>
	</StyleMap>
	<Placemark id="0D2CADC70B3E41B6B12A">
		<name>Location Myr</name>
		<LookAt>
			<longitude>49.37808589392048</longitude>
			<latitude>-18.14353776691417</latitude>
			<altitude>11.07951484306898</altitude>
			<heading>214.447191511736</heading>
			<tilt>0</tilt>
			<gx:fovy>35</gx:fovy>
			<range>94.43505999063746</range>
			<altitudeMode>absolute</altitudeMode>
		</LookAt>
		<styleUrl>#__managed_style_01025E3BC63E41B6B12C</styleUrl>
		<ExtendedData>
			<SchemaData schemaUrl="#__managed_schema">
				<SimpleData name="180C8018E33E41B6B12A">0</SimpleData>
			</SchemaData>
		</ExtendedData>
		<Point>
			<extrude>1</extrude>
			<coordinates>49.37814912789624,-18.14353476832611,11.00042051568503</coordinates>
		</Point>
	</Placemark>
</Document>
</kml>
